{
  "type": "FeatureCollection",
  "features": [
    {
      "type": "Feature",
      "properties": {
        "norad_id": 41330,
        "name": "COSMOS 2514 (751)",
        "group": "gnss",
        "lat": -23.77756640581217,
        "lon": -52.384815060984195,
        "alt_km": 19145.629631164047,
        "timestamp": "2025-12-12T11:38:31.654410+00:00",
        "meta_object_name": "COSMOS 2514 (751)",
        "meta_object_id": "2016-008A",
        "meta_epoch": "2025-12-11T02:40:55.560288",
        "meta_mean_motion": 2.13102604,
        "meta_eccentricity": 0.0012161,
        "meta_inclination": 65.1347,
        "meta_ra_of_asc_node": 319.4596,
        "meta_arg_of_pericenter": 220.0573,
        "meta_mean_anomaly": 139.8518,
        "meta_ephemeris_type": 0,
        "meta_classification_type": "U",
        "meta_norad_cat_id": 41330,
        "meta_element_set_no": 999,
        "meta_rev_at_epoch": 7661,
        "meta_bstar": 0,
        "meta_mean_motion_dot": -5.2e-07,
        "meta_mean_motion_ddot": 0,
        "tle_line1": "1 41330U 16008A   25345.11175417 -.00000052  00000+0  00000+0 0  9998",
        "tle_line2": "2 41330  65.1347 319.4596 0012161 220.0573 139.8518  2.13102604 76610"
      },
      "geometry": {
        "type": "Point",
        "coordinates": [
          -52.384815060984195,
          -23.77756640581217
        ]
      }
    },
    {
      "type": "Feature",
      "properties": {
        "norad_id": 41384,
        "name": "IRNSS-1F",
        "group": "gnss",
        "lat": -0.6237444392702963,
        "lon": -71.5701622449529,
        "alt_km": 35691.35626907872,
        "timestamp": "2025-12-12T11:38:31.654421+00:00",
        "meta_object_name": "IRNSS-1F",
        "meta_object_id": "2016-015A",
        "meta_epoch": "2025-12-12T01:38:55.042368",
        "meta_mean_motion": 1.00272169,
        "meta_eccentricity": 0.0022543,
        "meta_inclination": 4.8789,
        "meta_ra_of_asc_node": 101.3168,
        "meta_arg_of_pericenter": 180.5882,
        "meta_mean_anomaly": 216.205,
        "meta_ephemeris_type": 0,
        "meta_classification_type": "U",
        "meta_norad_cat_id": 41384,
        "meta_element_set_no": 999,
        "meta_rev_at_epoch": 3579,
        "meta_bstar": 0,
        "meta_mean_motion_dot": 1.68e-06,
        "meta_mean_motion_ddot": 0,
        "tle_line1": "1 41384U 16015A   25346.06869262  .00000168  00000+0  00000+0 0  9995",
        "tle_line2": "2 41384   4.8789 101.3168 0022543 180.5882 216.2050  1.00272169 35794"
      },
      "geometry": {
        "type": "Point",
        "coordinates": [
          -71.5701622449529,
          -0.6237444392702963
        ]
      }
    },
    {
      "type": "Feature",
      "properties": {
        "norad_id": 41434,
        "name": "BEIDOU-2 IGSO-6 (C13)",
        "group": "gnss",
        "lat": -41.74634723257105,
        "lon": 8.887565149551008,
        "alt_km": 35738.49481628035,
        "timestamp": "2025-12-12T11:38:31.654432+00:00",
        "meta_object_name": "BEIDOU-2 IGSO-6 (C13)",
        "meta_object_id": "2016-021A",
        "meta_epoch": "2025-12-11T15:29:12.615360",
        "meta_mean_motion": 1.00293077,
        "meta_eccentricity": 0.00608616,
        "meta_inclination": 59.9644,
        "meta_ra_of_asc_node": 39.9082,
        "meta_arg_of_pericenter": 229.9753,
        "meta_mean_anomaly": 135.9177,
        "meta_ephemeris_type": 0,
        "meta_classification_type": "U",
        "meta_norad_cat_id": 41434,
        "meta_element_set_no": 999,
        "meta_rev_at_epoch": 3560,
        "meta_bstar": 0,
        "meta_mean_motion_dot": -1.62e-06,
        "meta_mean_motion_ddot": 0,
        "tle_line1": "1 41434U 16021A   25345.64528490 -.00000162  00000+0  00000+0 0  9991",
        "tle_line2": "2 41434  59.9644  39.9082 0060861 229.9753 135.9177  1.00293077 35600"
      },
      "geometry": {
        "type": "Point",
        "coordinates": [
          8.887565149551008,
          -41.74634723257105
        ]
      }
    },
    {
      "type": "Feature",
      "properties": {
        "norad_id": 41469,
        "name": "IRNSS-1G",
        "group": "gnss",
        "lat": -4.593620342695434,
        "lon": 25.4019649494611,
        "alt_km": 35777.6199352772,
        "timestamp": "2025-12-12T11:38:31.654444+00:00",
        "meta_object_name": "IRNSS-1G",
        "meta_object_id": "2016-027A",
        "meta_epoch": "2025-12-11T21:23:36.959136",
        "meta_mean_motion": 1.00280511,
        "meta_eccentricity": 0.0002607,
        "meta_inclination": 4.7315,
        "meta_ra_of_asc_node": 102.1189,
        "meta_arg_of_pericenter": 335.826,
        "meta_mean_anomaly": 93.1052,
        "meta_ephemeris_type": 0,
        "meta_classification_type": "U",
        "meta_norad_cat_id": 41469,
        "meta_element_set_no": 999,
        "meta_rev_at_epoch": 3530,
        "meta_bstar": 0,
        "meta_mean_motion_dot": -3.26e-06,
        "meta_mean_motion_ddot": 0,
        "tle_line1": "1 41469U 16027A   25345.89139999 -.00000326  00000+0  00000+0 0  9996",
        "tle_line2": "2 41469   4.7315 102.1189 0002607 335.8260  93.1052  1.00280511 35309"
      },
      "geometry": {
        "type": "Point",
        "coordinates": [
          25.4019649494611,
          -4.593620342695434
        ]
      }
    },
    {
      "type": "Feature",
      "properties": {
        "norad_id": 41549,
        "name": "GSAT0211 (GALILEO 14)",
        "group": "gnss",
        "lat": 34.38253287409979,
        "lon": 18.394706008884093,
        "alt_km": 23223.834614765194,
        "timestamp": "2025-12-12T11:38:31.654456+00:00",
        "meta_object_name": "GSAT0211 (GALILEO 14)",
        "meta_object_id": "2016-030A",
        "meta_epoch": "2025-12-11T02:09:03.353760",
        "meta_mean_motion": 1.70473055,
        "meta_eccentricity": 0.00041282,
        "meta_inclination": 55.1527,
        "meta_ra_of_asc_node": 226.8689,
        "meta_arg_of_pericenter": 18.4657,
        "meta_mean_anomaly": 341.6286,
        "meta_ephemeris_type": 0,
        "meta_classification_type": "U",
        "meta_norad_cat_id": 41549,
        "meta_element_set_no": 999,
        "meta_rev_at_epoch": 5946,
        "meta_bstar": 0,
        "meta_mean_motion_dot": 9e-08,
        "meta_mean_motion_ddot": 0,
        "tle_line1": "1 41549U 16030A   25345.08962215  .00000009  00000+0  00000+0 0  9992",
        "tle_line2": "2 41549  55.1527 226.8689 0004128  18.4657 341.6286  1.70473055 59463"
      },
      "geometry": {
        "type": "Point",
        "coordinates": [
          18.394706008884093,
          34.38253287409979
        ]
      }
    },
    {
      "type": "Feature",
      "properties": {
        "norad_id": 41550,
        "name": "GSAT0210 (GALILEO 13)",
        "group": "gnss",
        "lat": -17.532478212257434,
        "lon": -145.86754925236096,
        "alt_km": 23225.062235536087,
        "timestamp": "2025-12-12T11:38:31.654468+00:00",
        "meta_object_name": "GSAT0210 (GALILEO 13)",
        "meta_object_id": "2016-030B",
        "meta_epoch": "2025-12-11T08:19:41.751264",
        "meta_mean_motion": 1.70473653,
        "meta_eccentricity": 0.00011945,
        "meta_inclination": 55.152,
        "meta_ra_of_asc_node": 226.8599,
        "meta_arg_of_pericenter": 242.2312,
        "meta_mean_anomaly": 117.8354,
        "meta_ephemeris_type": 0,
        "meta_classification_type": "U",
        "meta_norad_cat_id": 41550,
        "meta_element_set_no": 999,
        "meta_rev_at_epoch": 5946,
        "meta_bstar": 0,
        "meta_mean_motion_dot": 1e-07,
        "meta_mean_motion_ddot": 0,
        "tle_line1": "1 41550U 16030B   25345.34701101  .00000010  00000+0  00000+0 0  9990",
        "tle_line2": "2 41550  55.1520 226.8599 0001194 242.2312 117.8354  1.70473653 59466"
      },
      "geometry": {
        "type": "Point",
        "coordinates": [
          -145.86754925236096,
          -17.532478212257434
        ]
      }
    },
    {
      "type": "Feature",
      "properties": {
        "norad_id": 41586,
        "name": "BEIDOU-2 G7 (C03)",
        "group": "gnss",
        "lat": -1.5323604439716993,
        "lon": 6.451789903308658,
        "alt_km": 35778.41444715573,
        "timestamp": "2025-12-12T11:38:31.654482+00:00",
        "meta_object_name": "BEIDOU-2 G7 (C03)",
        "meta_object_id": "2016-037A",
        "meta_epoch": "2025-12-12T02:01:15.402720",
        "meta_mean_motion": 1.00267502,
        "meta_eccentricity": 0.0004441,
        "meta_inclination": 1.7559,
        "meta_ra_of_asc_node": 67.7487,
        "meta_arg_of_pericenter": 359.5615,
        "meta_mean_anomaly": 154.4723,
        "meta_ephemeris_type": 0,
        "meta_classification_type": "U",
        "meta_norad_cat_id": 41586,
        "meta_element_set_no": 999,
        "meta_rev_at_epoch": 501,
        "meta_bstar": 0,
        "meta_mean_motion_dot": -3.44e-06,
        "meta_mean_motion_ddot": 0,
        "tle_line1": "1 41586U 16037A   25346.08420605 -.00000344  00000+0  00000+0 0  9996",
        "tle_line2": "2 41586   1.7559  67.7487 0004441 359.5615 154.4723  1.00267502  5014"
      },
      "geometry": {
        "type": "Point",
        "coordinates": [
          6.451789903308658,
          -1.5323604439716993
        ]
      }
    }
  ]
}